ONEWEB-0012             
1 44057U 19010A   25240.58888485  .00000091  00000+0  20442-3 0  9992
2 44057  87.9001 287.1234 0002304  88.4086 271.7309 13.16593575313064
ONEWEB-0010             
1 44058U 19010B   25240.91820846  .00000004  00000+0 -23697-4 0  9998
2 44058  87.9001 287.0405 0001598  88.5852 271.5462 13.16593597313152
ONEWEB-0008             
1 44059U 19010C   25240.56354569 -.00000041  00000+0 -14197-3 0  9990
2 44059  87.9000 287.1095 0002566  98.4690 261.6732 13.16595697313225
ONEWEB-0007             
1 44060U 19010D   25240.74650487  .00000125  00000+0  29722-3 0  9991
2 44060  87.9065 317.5733 0001802  88.1357 271.9980 13.15547427312925
ONEWEB-0006             
1 44061U 19010E   25240.75045255  .00000084  00000+0  18896-3 0  9998
2 44061  87.9063 317.5132 0001696  92.2541 267.8783 13.15547656312973
ONEWEB-0011             
1 44062U 19010F   25240.71878412 -.00000025  00000+0 -99941-4 0  9992
2 44062  87.9067 317.5311 0001754 104.2703 255.8622 13.15548816312963
ONEWEB-0013             
1 45131U 20008A   25240.59003574 -.00000695  00000+0 -20549-2 0  9993
2 45131  87.8498 111.9180 0002689  73.7667 286.3755 13.09429207267774
ONEWEB-0017             
1 45132U 20008B   25240.62686116 -.00000626  00000+0 -18293-2 0  9994
2 45132  87.8762  94.6258 0001397  79.2546 280.8739 13.10377343269637
ONEWEB-0020             
1 45133U 20008C   25240.59697246  .00000471  00000+0  13136-2 0  9994
2 45133  87.8754  94.6145 0001668  90.0491 270.0828 13.10372826270021
ONEWEB-0021             
1 45134U 20008D   25240.61190473 -.00000289  00000+0 -86533-3 0  9999
2 45134  87.8753  94.6455 0001688  79.4723 280.6594 13.10369351270336
ONEWEB-0023             
1 45136U 20008F   25240.62269783 -.00000638  00000+0 -18645-2 0  9999
2 45136  87.8757  94.6263 0001695  87.6257 272.5064 13.10373231269769
ONEWEB-0024             
1 45137U 20008G   25240.59532834  .00000509  00000+0  14230-2 0  9997
2 45137  87.8764  94.5812 0001644  81.3825 278.7488 13.10369389269928
ONEWEB-0025             
1 45138U 20008H   25240.61275139 -.00000353  00000+0 -10474-2 0  9998
2 45138  87.8770  94.5875 0002252  76.7137 283.4242 13.10370286270252
ONEWEB-0026             
1 45139U 20008J   25240.63674344  .00000111  00000+0  27794-3 0  9996
2 45139  87.8777  79.3594 0001523  89.1823 270.9480 13.11413588272766
ONEWEB-0028             
1 45140U 20008K   25240.59350841 -.00000224  00000+0 -66717-3 0  9991
2 45140  87.8778  79.3891 0002323  79.1015 281.0374 13.11417887270275
ONEWEB-0032             
1 45141U 20008L   25240.62850493 -.00000552  00000+0 -16185-2 0  9991
2 45141  87.8756  94.6266 0001826  81.0957 279.0377 13.10369595269989
