[{"OBJECT_NAME":"ONEWEB-0012","OBJECT_ID":"2019-010A","EPOCH":"2025-08-28T14:07:59.651040","MEAN_MOTION":13.16593575,"ECCENTRICITY":0.00023041,"INCLINATION":87.9001,"RA_OF_ASC_NODE":287.1234,"ARG_OF_PERICENTER":88.4086,"MEAN_ANOMALY":271.7309,"EPHEMERIS_TYPE":0,"CLASSIFICATION_TYPE":"U","NORAD_CAT_ID":44057,"ELEMENT_SET_NO":999,"REV_AT_EPOCH":31306,"BSTAR":0.00020442099,"MEAN_MOTION_DOT":9.1e-7,"MEAN_MOTION_DDOT":0},{"OBJECT_NAME":"ONEWEB-0010","OBJECT_ID":"2019-010B","EPOCH":"2025-08-28T22:02:13.210944","MEAN_MOTION":13.16593597,"ECCENTRICITY":0.00015987,"INCLINATION":87.9001,"RA_OF_ASC_NODE":287.0405,"ARG_OF_PERICENTER":88.5852,"MEAN_ANOMALY":271.5462,"EPHEMERIS_TYPE":0,"CLASSIFICATION_TYPE":"U","NORAD_CAT_ID":44058,"ELEMENT_SET_NO":999,"REV_AT_EPOCH":31315,"BSTAR":-2.3696751e-5,"MEAN_MOTION_DOT":4.0e-8,"MEAN_MOTION_DDOT":0},{"OBJECT_NAME":"ONEWEB-0008","OBJECT_ID":"2019-010C","EPOCH":"2025-08-28T13:31:30.347616","MEAN_MOTION":13.16595697,"ECCENTRICITY":0.00025668,"INCLINATION":87.9,"RA_OF_ASC_NODE":287.1095,"ARG_OF_PERICENTER":98.469,"MEAN_ANOMALY":261.6732,"EPHEMERIS_TYPE":0,"CLASSIFICATION_TYPE":"U","NORAD_CAT_ID":44059,"ELEMENT_SET_NO":999,"REV_AT_EPOCH":31322,"BSTAR":-0.0001419699,"MEAN_MOTION_DOT":-4.1e-7,"MEAN_MOTION_DDOT":0},{"OBJECT_NAME":"ONEWEB-0007","OBJECT_ID":"2019-010D","EPOCH":"2025-08-28T17:54:58.020768","MEAN_MOTION":13.15547427,"ECCENTRICITY":0.00018029,"INCLINATION":87.9065,"RA_OF_ASC_NODE":317.5733,"ARG_OF_PERICENTER":88.1357,"MEAN_ANOMALY":271.998,"EPHEMERIS_TYPE":0,"CLASSIFICATION_TYPE":"U","NORAD_CAT_ID":44060,"ELEMENT_SET_NO":999,"REV_AT_EPOCH":31292,"BSTAR":0.00029722475,"MEAN_MOTION_DOT":1.25e-6,"MEAN_MOTION_DDOT":0},{"OBJECT_NAME":"ONEWEB-0006","OBJECT_ID":"2019-010E","EPOCH":"2025-08-28T18:00:39.100320","MEAN_MOTION":13.15547656,"ECCENTRICITY":0.00016964,"INCLINATION":87.9063,"RA_OF_ASC_NODE":317.5132,"ARG_OF_PERICENTER":92.2541,"MEAN_ANOMALY":267.8783,"EPHEMERIS_TYPE":0,"CLASSIFICATION_TYPE":"U","NORAD_CAT_ID":44061,"ELEMENT_SET_NO":999,"REV_AT_EPOCH":31297,"BSTAR":0.00018895501,"MEAN_MOTION_DOT":8.4e-7,"MEAN_MOTION_DDOT":0},{"OBJECT_NAME":"ONEWEB-0011","OBJECT_ID":"2019-010F","EPOCH":"2025-08-28T17:15:02.947968","MEAN_MOTION":13.15548816,"ECCENTRICITY":0.00017548,"INCLINATION":87.9067,"RA_OF_ASC_NODE":317.5311,"ARG_OF_PERICENTER":104.2703,"MEAN_ANOMALY":255.8622,"EPHEMERIS_TYPE":0,"CLASSIFICATION_TYPE":"U","NORAD_CAT_ID":44062,"ELEMENT_SET_NO":999,"REV_AT_EPOCH":31296,"BSTAR":-9.9940736e-5,"MEAN_MOTION_DOT":-2.5e-7,"MEAN_MOTION_DDOT":0},{"OBJECT_NAME":"ONEWEB-0013","OBJECT_ID":"2020-008A","EPOCH":"2025-08-28T14:09:39.087936","MEAN_MOTION":13.09429207,"ECCENTRICITY":0.0002689,"INCLINATION":87.8498,"RA_OF_ASC_NODE":111.918,"ARG_OF_PERICENTER":73.7667,"MEAN_ANOMALY":286.3755,"EPHEMERIS_TYPE":0,"CLASSIFICATION_TYPE":"U","NORAD_CAT_ID":45131,"ELEMENT_SET_NO":999,"REV_AT_EPOCH":26777,"BSTAR":-0.0020549465,"MEAN_MOTION_DOT":-6.95e-6,"MEAN_MOTION_DDOT":0},{"OBJECT_NAME":"ONEWEB-0017","OBJECT_ID":"2020-008B","EPOCH":"2025-08-28T15:02:40.804224","MEAN_MOTION":13.10377343,"ECCENTRICITY":0.00013979,"INCLINATION":87.8762,"RA_OF_ASC_NODE":94.6258,"ARG_OF_PERICENTER":79.2546,"MEAN_ANOMALY":280.8739,"EPHEMERIS_TYPE":0,"CLASSIFICATION_TYPE":"U","NORAD_CAT_ID":45132,"ELEMENT_SET_NO":999,"REV_AT_EPOCH":26963,"BSTAR":-0.0018293049,"MEAN_MOTION_DOT":-6.26e-6,"MEAN_MOTION_DDOT":0},{"OBJECT_NAME":"ONEWEB-0020","OBJECT_ID":"2020-008C","EPOCH":"2025-08-28T14:19:38.420544","MEAN_MOTION":13.10372826,"ECCENTRICITY":0.00016689,"INCLINATION":87.8754,"RA_OF_ASC_NODE":94.6145,"ARG_OF_PERICENTER":90.0491,"MEAN_ANOMALY":270.0828,"EPHEMERIS_TYPE":0,"CLASSIFICATION_TYPE":"U","NORAD_CAT_ID":45133,"ELEMENT_SET_NO":999,"REV_AT_EPOCH":27002,"BSTAR":0.0013136332,"MEAN_MOTION_DOT":4.71e-6,"MEAN_MOTION_DDOT":0},{"OBJECT_NAME":"ONEWEB-0021","OBJECT_ID":"2020-008D","EPOCH":"2025-08-28T14:41:08.568672","MEAN_MOTION":13.10369351,"ECCENTRICITY":0.00016882,"INCLINATION":87.8753,"RA_OF_ASC_NODE":94.6455,"ARG_OF_PERICENTER":79.4723,"MEAN_ANOMALY":280.6594,"EPHEMERIS_TYPE":0,"CLASSIFICATION_TYPE":"U","NORAD_CAT_ID":45134,"ELEMENT_SET_NO":999,"REV_AT_EPOCH":27033,"BSTAR":-0.00086533054,"MEAN_MOTION_DOT":-2.89e-6,"MEAN_MOTION_DDOT":0},{"OBJECT_NAME":"ONEWEB-0023","OBJECT_ID":"2020-008F","EPOCH":"2025-08-28T14:56:41.092512","MEAN_MOTION":13.10373231,"ECCENTRICITY":0.00016958,"INCLINATION":87.8757,"RA_OF_ASC_NODE":94.6263,"ARG_OF_PERICENTER":87.6257,"MEAN_ANOMALY":272.5064,"EPHEMERIS_TYPE":0,"CLASSIFICATION_TYPE":"U","NORAD_CAT_ID":45136,"ELEMENT_SET_NO":999,"REV_AT_EPOCH":26976,"BSTAR":-0.0018644846,"MEAN_MOTION_DOT":-6.38e-6,"MEAN_MOTION_DDOT":0},{"OBJECT_NAME":"ONEWEB-0024","OBJECT_ID":"2020-008G","EPOCH":"2025-08-28T14:17:16.368576","MEAN_MOTION":13.10369389,"ECCENTRICITY":0.00016446,"INCLINATION":87.8764,"RA_OF_ASC_NODE":94.5812,"ARG_OF_PERICENTER":81.3825,"MEAN_ANOMALY":278.7488,"EPHEMERIS_TYPE":0,"CLASSIFICATION_TYPE":"U","NORAD_CAT_ID":45137,"ELEMENT_SET_NO":999,"REV_AT_EPOCH":26992,"BSTAR":0.0014230463,"MEAN_MOTION_DOT":5.09e-6,"MEAN_MOTION_DDOT":0},{"OBJECT_NAME":"ONEWEB-0025","OBJECT_ID":"2020-008H","EPOCH":"2025-08-28T14:42:21.720096","MEAN_MOTION":13.10370286,"ECCENTRICITY":0.00022524,"INCLINATION":87.877,"RA_OF_ASC_NODE":94.5875,"ARG_OF_PERICENTER":76.7137,"MEAN_ANOMALY":283.4242,"EPHEMERIS_TYPE":0,"CLASSIFICATION_TYPE":"U","NORAD_CAT_ID":45138,"ELEMENT_SET_NO":999,"REV_AT_EPOCH":27025,"BSTAR":-0.0010473833,"MEAN_MOTION_DOT":-3.53e-6,"MEAN_MOTION_DDOT":0},{"OBJECT_NAME":"ONEWEB-0026","OBJECT_ID":"2020-008J","EPOCH":"2025-08-28T15:16:54.633216","MEAN_MOTION":13.11413588,"ECCENTRICITY":0.00015232,"INCLINATION":87.8777,"RA_OF_ASC_NODE":79.3594,"ARG_OF_PERICENTER":89.1823,"MEAN_ANOMALY":270.948,"EPHEMERIS_TYPE":0,"CLASSIFICATION_TYPE":"U","NORAD_CAT_ID":45139,"ELEMENT_SET_NO":999,"REV_AT_EPOCH":27276,"BSTAR":0.00027794162,"MEAN_MOTION_DOT":1.11e-6,"MEAN_MOTION_DDOT":0},{"OBJECT_NAME":"ONEWEB-0028","OBJECT_ID":"2020-008K","EPOCH":"2025-08-28T14:14:39.126624","MEAN_MOTION":13.11417887,"ECCENTRICITY":0.00023232,"INCLINATION":87.8778,"RA_OF_ASC_NODE":79.3891,"ARG_OF_PERICENTER":79.1015,"MEAN_ANOMALY":281.0374,"EPHEMERIS_TYPE":0,"CLASSIFICATION_TYPE":"U","NORAD_CAT_ID":45140,"ELEMENT_SET_NO":999,"REV_AT_EPOCH":27027,"BSTAR":-0.00066717229,"MEAN_MOTION_DOT":-2.24e-6,"MEAN_MOTION_DDOT":0},{"OBJECT_NAME":"ONEWEB-0032","OBJECT_ID":"2020-008L","EPOCH":"2025-08-28T15:05:02.825952","MEAN_MOTION":13.10369595,"ECCENTRICITY":0.00018268,"INCLINATION":87.8756,"RA_OF_ASC_NODE":94.6266,"ARG_OF_PERICENTER":81.0957,"MEAN_ANOMALY":279.0377,"EPHEMERIS_TYPE":0,"CLASSIFICATION_TYPE":"U","NORAD_CAT_ID":45141,"ELEMENT_SET_NO":999,"REV_AT_EPOCH":26998,"BSTAR":-0.0016185176,"MEAN_MOTION_DOT":-5.52e-6,"MEAN_MOTION_DDOT":0}]
